CCSDS_OMM_VERS = 2.0
CREATION_DATE  = 
ORIGINATOR     = 

OBJECT_NAME    = STARLINK-35797
OBJECT_ID      = 2025-254S
CENTER_NAME    = EARTH
REF_FRAME      = TEME
TIME_SYSTEM    = UTC
MEAN_ELEMENT_THEORY = SGP/SGP4

EPOCH          = 2025-12-04T04:00:03.000096
MEAN_MOTION    = 15.60103167
ECCENTRICITY   = .0001342
INCLINATION    = 53.1594
RA_OF_ASC_NODE = 317.6235
ARG_OF_PERICENTER = 93.4988
MEAN_ANOMALY   = 134.2555

EPHEMERIS_TYPE = 0
CLASSIFICATION_TYPE = U
NORAD_CAT_ID   = 66364
ELEMENT_SET_NO = 999
REV_AT_EPOCH   = 554
BSTAR          = -.28293E-1
MEAN_MOTION_DOT = -.2046457E-1
MEAN_MOTION_DDOT = 0

CCSDS_OMM_VERS = 2.0
CREATION_DATE  = 
ORIGINATOR     = 

OBJECT_NAME    = STARLINK-35827
OBJECT_ID      = 2025-254T
CENTER_NAME    = EARTH
REF_FRAME      = TEME
TIME_SYSTEM    = UTC
MEAN_ELEMENT_THEORY = SGP/SGP4

EPOCH          = 2025-12-04T04:00:03.000096
MEAN_MOTION    = 15.60102785
ECCENTRICITY   = .0001426
INCLINATION    = 53.1592
RA_OF_ASC_NODE = 317.6162
ARG_OF_PERICENTER = 95.9826
MEAN_ANOMALY   = 135.6049

EPHEMERIS_TYPE = 0
CLASSIFICATION_TYPE = U
NORAD_CAT_ID   = 66365
ELEMENT_SET_NO = 999
REV_AT_EPOCH   = 551
BSTAR          = -.28286E-1
MEAN_MOTION_DOT = -.2046059E-1
MEAN_MOTION_DDOT = 0

CCSDS_OMM_VERS = 2.0
CREATION_DATE  = 
ORIGINATOR     = 

OBJECT_NAME    = STARLINK-35845
OBJECT_ID      = 2025-254U
CENTER_NAME    = EARTH
REF_FRAME      = TEME
TIME_SYSTEM    = UTC
MEAN_ELEMENT_THEORY = SGP/SGP4

EPOCH          = 2025-12-04T04:00:03.000096
MEAN_MOTION    = 15.60100585
ECCENTRICITY   = .0001216
INCLINATION    = 53.1593
RA_OF_ASC_NODE = 317.6193
ARG_OF_PERICENTER = 89.2051
MEAN_ANOMALY   = 140.4674

EPHEMERIS_TYPE = 0
CLASSIFICATION_TYPE = U
NORAD_CAT_ID   = 66366
ELEMENT_SET_NO = 999
REV_AT_EPOCH   = 554
BSTAR          = -.28251E-1
MEAN_MOTION_DOT = -.2043538E-1
MEAN_MOTION_DDOT = 0

CCSDS_OMM_VERS = 2.0
CREATION_DATE  = 
ORIGINATOR     = 

OBJECT_NAME    = STARLINK-35846
OBJECT_ID      = 2025-254V
CENTER_NAME    = EARTH
REF_FRAME      = TEME
TIME_SYSTEM    = UTC
MEAN_ELEMENT_THEORY = SGP/SGP4

EPOCH          = 2025-12-04T04:00:03.000096
MEAN_MOTION    = 15.60101002
ECCENTRICITY   = .0001366
INCLINATION    = 53.1593
RA_OF_ASC_NODE = 317.6111
ARG_OF_PERICENTER = 93.6672
MEAN_ANOMALY   = 139.8375

EPHEMERIS_TYPE = 0
CLASSIFICATION_TYPE = U
NORAD_CAT_ID   = 66367
ELEMENT_SET_NO = 999
REV_AT_EPOCH   = 549
BSTAR          = -.28224E-1
MEAN_MOTION_DOT = -.2041957E-1
MEAN_MOTION_DDOT = 0

CCSDS_OMM_VERS = 2.0
CREATION_DATE  = 
ORIGINATOR     = 

OBJECT_NAME    = STARLINK-34861
OBJECT_ID      = 2025-254W
CENTER_NAME    = EARTH
REF_FRAME      = TEME
TIME_SYSTEM    = UTC
MEAN_ELEMENT_THEORY = SGP/SGP4

EPOCH          = 2025-12-04T02:39:07.892928
MEAN_MOTION    = 15.74346850
ECCENTRICITY   = .0001183
INCLINATION    = 53.1567
RA_OF_ASC_NODE = 317.7146
ARG_OF_PERICENTER = 123.9885
MEAN_ANOMALY   = 236.1247

EPHEMERIS_TYPE = 0
CLASSIFICATION_TYPE = U
NORAD_CAT_ID   = 66368
ELEMENT_SET_NO = 999
REV_AT_EPOCH   = 432
BSTAR          = .23569E-2
MEAN_MOTION_DOT = .362265E-2
MEAN_MOTION_DDOT = 0

CCSDS_OMM_VERS = 2.0
CREATION_DATE  = 
ORIGINATOR     = 

OBJECT_NAME    = STARLINK-35795
OBJECT_ID      = 2025-254X
CENTER_NAME    = EARTH
REF_FRAME      = TEME
TIME_SYSTEM    = UTC
MEAN_ELEMENT_THEORY = SGP/SGP4

EPOCH          = 2025-12-04T02:39:36.815328
MEAN_MOTION    = 15.74349696
ECCENTRICITY   = .0003045
INCLINATION    = 53.1567
RA_OF_ASC_NODE = 317.7168
ARG_OF_PERICENTER = 147.1731
MEAN_ANOMALY   = 212.9479

EPHEMERIS_TYPE = 0
CLASSIFICATION_TYPE = U
NORAD_CAT_ID   = 66369
ELEMENT_SET_NO = 999
REV_AT_EPOCH   = 432
BSTAR          = .21458E-2
MEAN_MOTION_DOT = .328479E-2
MEAN_MOTION_DDOT = 0

CCSDS_OMM_VERS = 2.0
CREATION_DATE  = 
ORIGINATOR     = 

OBJECT_NAME    = STARLINK-35824
OBJECT_ID      = 2025-254Y
CENTER_NAME    = EARTH
REF_FRAME      = TEME
TIME_SYSTEM    = UTC
MEAN_ELEMENT_THEORY = SGP/SGP4

EPOCH          = 2025-12-04T02:38:39.081120
MEAN_MOTION    = 15.74459234
ECCENTRICITY   = .0000367
INCLINATION    = 53.1568
RA_OF_ASC_NODE = 317.7129
ARG_OF_PERICENTER = 67.6917
MEAN_ANOMALY   = 292.4142

EPHEMERIS_TYPE = 0
CLASSIFICATION_TYPE = U
NORAD_CAT_ID   = 66370
ELEMENT_SET_NO = 999
REV_AT_EPOCH   = 432
BSTAR          = .31685E-2
MEAN_MOTION_DOT = .497732E-2
MEAN_MOTION_DDOT = 0

CCSDS_OMM_VERS = 2.0
CREATION_DATE  = 
ORIGINATOR     = 

OBJECT_NAME    = STARLINK-35804
OBJECT_ID      = 2025-254Z
CENTER_NAME    = EARTH
REF_FRAME      = TEME
TIME_SYSTEM    = UTC
MEAN_ELEMENT_THEORY = SGP/SGP4

EPOCH          = 2025-12-04T04:09:05.558400
MEAN_MOTION    = 15.74336178
ECCENTRICITY   = .0000899
INCLINATION    = 53.1566
RA_OF_ASC_NODE = 317.3925
ARG_OF_PERICENTER = 86.8700
MEAN_ANOMALY   = 273.2423

EPHEMERIS_TYPE = 0
CLASSIFICATION_TYPE = U
NORAD_CAT_ID   = 66371
ELEMENT_SET_NO = 999
REV_AT_EPOCH   = 433
BSTAR          = .22578E-2
MEAN_MOTION_DOT = .346193E-2
MEAN_MOTION_DDOT = 0

CCSDS_OMM_VERS = 2.0
CREATION_DATE  = 
ORIGINATOR     = 

OBJECT_NAME    = STARLINK-35821
OBJECT_ID      = 2025-254AA
CENTER_NAME    = EARTH
REF_FRAME      = TEME
TIME_SYSTEM    = UTC
MEAN_ELEMENT_THEORY = SGP/SGP4

EPOCH          = 2025-12-04T02:38:09.425184
MEAN_MOTION    = 15.74311986
ECCENTRICITY   = .0001894
INCLINATION    = 53.1567
RA_OF_ASC_NODE = 317.7113
ARG_OF_PERICENTER = 102.3262
MEAN_ANOMALY   = 257.7970

EPHEMERIS_TYPE = 0
CLASSIFICATION_TYPE = U
NORAD_CAT_ID   = 66372
ELEMENT_SET_NO = 999
REV_AT_EPOCH   = 432
BSTAR          = .23713E-2
MEAN_MOTION_DOT = .364005E-2
MEAN_MOTION_DDOT = 0

CCSDS_OMM_VERS = 2.0
CREATION_DATE  = 
ORIGINATOR     = 

OBJECT_NAME    = STARLINK-35809
OBJECT_ID      = 2025-254AB
CENTER_NAME    = EARTH
REF_FRAME      = TEME
TIME_SYSTEM    = UTC
MEAN_ELEMENT_THEORY = SGP/SGP4

EPOCH          = 2025-12-04T02:37:11.292672
MEAN_MOTION    = 15.74358169
ECCENTRICITY   = .0001053
INCLINATION    = 53.1566
RA_OF_ASC_NODE = 317.7054
ARG_OF_PERICENTER = 75.9118
MEAN_ANOMALY   = 284.2018

EPHEMERIS_TYPE = 0
CLASSIFICATION_TYPE = U
NORAD_CAT_ID   = 66373
ELEMENT_SET_NO = 999
REV_AT_EPOCH   = 432
BSTAR          = .26661E-2
MEAN_MOTION_DOT = .412582E-2
MEAN_MOTION_DDOT = 0

CCSDS_OMM_VERS = 2.0
CREATION_DATE  = 
ORIGINATOR     = 

OBJECT_NAME    = STARLINK-35831
OBJECT_ID      = 2025-254AC
CENTER_NAME    = EARTH
REF_FRAME      = TEME
TIME_SYSTEM    = UTC
MEAN_ELEMENT_THEORY = SGP/SGP4

EPOCH          = 2025-12-04T02:36:41.952096
MEAN_MOTION    = 15.74376092
ECCENTRICITY   = .0002461
INCLINATION    = 53.1567
RA_OF_ASC_NODE = 317.7024
ARG_OF_PERICENTER = 116.3070
MEAN_ANOMALY   = 243.8203

EPHEMERIS_TYPE = 0
CLASSIFICATION_TYPE = U
NORAD_CAT_ID   = 66374
ELEMENT_SET_NO = 999
REV_AT_EPOCH   = 432
BSTAR          = .28555E-2
MEAN_MOTION_DOT = .443929E-2
MEAN_MOTION_DDOT = 0

CCSDS_OMM_VERS = 2.0
CREATION_DATE  = 
ORIGINATOR     = 

OBJECT_NAME    = STARLINK-35826
OBJECT_ID      = 2025-254AD
CENTER_NAME    = EARTH
REF_FRAME      = TEME
TIME_SYSTEM    = UTC
MEAN_ELEMENT_THEORY = SGP/SGP4

EPOCH          = 2025-12-04T02:36:12.919104
MEAN_MOTION    = 15.74307679
ECCENTRICITY   = .0001369
INCLINATION    = 53.1565
RA_OF_ASC_NODE = 317.7005
ARG_OF_PERICENTER = 116.4710
MEAN_ANOMALY   = 243.6450

EPHEMERIS_TYPE = 0
CLASSIFICATION_TYPE = U
NORAD_CAT_ID   = 66375
ELEMENT_SET_NO = 999
REV_AT_EPOCH   = 432
BSTAR          = .17206E-2
MEAN_MOTION_DOT = .260646E-2
MEAN_MOTION_DDOT = 0

