STARLINK-35797          
1 66364U 25254S   25338.16670139 -.02046457  00000+0 -28293-1 0  9991
2 66364  53.1594 317.6235 0001342  93.4988 134.2555 15.60103167  5541
STARLINK-35827          
1 66365U 25254T   25338.16670139 -.02046059  00000+0 -28286-1 0  9992
2 66365  53.1592 317.6162 0001426  95.9826 135.6049 15.60102785  5515
STARLINK-35845          
1 66366U 25254U   25338.16670139 -.02043538  00000+0 -28251-1 0  9994
2 66366  53.1593 317.6193 0001216  89.2051 140.4674 15.60100585  5541
STARLINK-35846          
1 66367U 25254V   25338.16670139 -.02041957  00000+0 -28224-1 0  9998
2 66367  53.1593 317.6111 0001366  93.6672 139.8375 15.60101002  5495
STARLINK-34861          
1 66368U 25254W   25338.11050802  .00362265  00000+0  23569-2 0  9995
2 66368  53.1567 317.7146 0001183 123.9885 236.1247 15.74346850  4323
STARLINK-35795          
1 66369U 25254X   25338.11084277  .00328479  00000+0  21458-2 0  9993
2 66369  53.1567 317.7168 0003045 147.1731 212.9479 15.74349696  4325
STARLINK-35824          
1 66370U 25254Y   25338.11017455  .00497732  00000+0  31685-2 0  9991
2 66370  53.1568 317.7129 0000367  67.6917 292.4142 15.74459234  4321
STARLINK-35804          
1 66371U 25254Z   25338.17298100  .00346193  00000+0  22578-2 0  9991
2 66371  53.1566 317.3925 0000899  86.8700 273.2423 15.74336178  4334
STARLINK-35821          
1 66372U 25254AA  25338.10983131  .00364005  00000+0  23713-2 0  9994
2 66372  53.1567 317.7113 0001894 102.3262 257.7970 15.74311986  4325
STARLINK-35809          
1 66373U 25254AB  25338.10915848  .00412582  00000+0  26661-2 0  9994
2 66373  53.1566 317.7054 0001053  75.9118 284.2018 15.74358169  4323
STARLINK-35831          
1 66374U 25254AC  25338.10881889  .00443929  00000+0  28555-2 0  9995
2 66374  53.1567 317.7024 0002461 116.3070 243.8203 15.74376092  4325
STARLINK-35826          
1 66375U 25254AD  25338.10848286  .00260646  00000+0  17206-2 0  9994
2 66375  53.1565 317.7005 0001369 116.4710 243.6450 15.74307679  4328
